{
  "type": "FeatureCollection",
  "features": [
    {
      "type": "Feature",
      "properties": {
        "norad_id": 31476,
        "name": "FENGYUN 1C DEB",
        "group": "fengyun-1c-debris",
        "lat": 0.9347437272942265,
        "lon": -113.49019345722834,
        "alt_km": 785.9153013059067,
        "timestamp": "2025-12-18T19:29:52.826825+00:00",
        "meta_object_name": "FENGYUN 1C DEB",
        "meta_object_id": "1999-025BVQ",
        "meta_epoch": "2025-12-17T03:49:29.142048",
        "meta_mean_motion": 14.22131431,
        "meta_eccentricity": 0.00531385,
        "meta_inclination": 98.8969,
        "meta_ra_of_asc_node": 64.6961,
        "meta_arg_of_pericenter": 159.7768,
        "meta_mean_anomaly": 200.553,
        "meta_ephemeris_type": 0,
        "meta_classification_type": "U",
        "meta_norad_cat_id": 31476,
        "meta_element_set_no": 999,
        "meta_rev_at_epoch": 95762,
        "meta_bstar": 0.0012132445,
        "meta_mean_motion_dot": 2.682e-05,
        "meta_mean_motion_ddot": 0,
        "tle_line1": "1 31476U 99025BVQ 25351.15936507  .00002682  00000+0  12132-2 0  9996",
        "tle_line2": "2 31476  98.8969  64.6961 0053138 159.7768 200.5530 14.22131431957623"
      },
      "geometry": {
        "type": "Point",
        "coordinates": [
          -113.49019345722834,
          0.9347437272942265
        ]
      }
    },
    {
      "type": "Feature",
      "properties": {
        "norad_id": 31477,
        "name": "FENGYUN 1C DEB",
        "group": "fengyun-1c-debris",
        "lat": -43.2808600841724,
        "lon": 153.90050398229903,
        "alt_km": 957.8238032989593,
        "timestamp": "2025-12-18T19:29:52.826835+00:00",
        "meta_object_name": "FENGYUN 1C DEB",
        "meta_object_id": "1999-025BVR",
        "meta_epoch": "2025-12-17T09:54:40.666752",
        "meta_mean_motion": 14.02927748,
        "meta_eccentricity": 0.01099262,
        "meta_inclination": 98.8859,
        "meta_ra_of_asc_node": 341.0064,
        "meta_arg_of_pericenter": 15.8832,
        "meta_mean_anomaly": 344.5738,
        "meta_ephemeris_type": 0,
        "meta_classification_type": "U",
        "meta_norad_cat_id": 31477,
        "meta_element_set_no": 999,
        "meta_rev_at_epoch": 95469,
        "meta_bstar": 0.00034385899,
        "meta_mean_motion_dot": 5.19e-06,
        "meta_mean_motion_ddot": 0,
        "tle_line1": "1 31477U 99025BVR 25351.41297068  .00000519  00000+0  34386-3 0  9991",
        "tle_line2": "2 31477  98.8859 341.0064 0109926  15.8832 344.5738 14.02927748954694"
      },
      "geometry": {
        "type": "Point",
        "coordinates": [
          153.90050398229903,
          -43.2808600841724
        ]
      }
    },
    {
      "type": "Feature",
      "properties": {
        "norad_id": 31480,
        "name": "FENGYUN 1C DEB",
        "group": "fengyun-1c-debris",
        "lat": -29.64591945541736,
        "lon": -151.84709593039784,
        "alt_km": 1075.2826329079726,
        "timestamp": "2025-12-18T19:29:52.826845+00:00",
        "meta_object_name": "FENGYUN 1C DEB",
        "meta_object_id": "1999-025BVU",
        "meta_epoch": "2025-12-18T00:38:43.440288",
        "meta_mean_motion": 13.89981041,
        "meta_eccentricity": 0.03442653,
        "meta_inclination": 98.3381,
        "meta_ra_of_asc_node": 202.6591,
        "meta_arg_of_pericenter": 206.6486,
        "meta_mean_anomaly": 151.6618,
        "meta_ephemeris_type": 0,
        "meta_classification_type": "U",
        "meta_norad_cat_id": 31480,
        "meta_element_set_no": 999,
        "meta_rev_at_epoch": 93469,
        "meta_bstar": 0.0023088676,
        "meta_mean_motion_dot": 4.554e-05,
        "meta_mean_motion_ddot": 0,
        "tle_line1": "1 31480U 99025BVU 25352.02689167  .00004554  00000+0  23089-2 0  9998",
        "tle_line2": "2 31480  98.3381 202.6591 0344265 206.6486 151.6618 13.89981041934694"
      },
      "geometry": {
        "type": "Point",
        "coordinates": [
          -151.84709593039784,
          -29.64591945541736
        ]
      }
    },
    {
      "type": "Feature",
      "properties": {
        "norad_id": 31482,
        "name": "FENGYUN 1C DEB",
        "group": "fengyun-1c-debris",
        "lat": -46.78120218327352,
        "lon": 5.526869305335914,
        "alt_km": 737.3358652148336,
        "timestamp": "2025-12-18T19:29:52.826856+00:00",
        "meta_object_name": "FENGYUN 1C DEB",
        "meta_object_id": "1999-025BVW",
        "meta_epoch": "2025-12-17T20:51:28.256256",
        "meta_mean_motion": 14.35679302,
        "meta_eccentricity": 0.00887385,
        "meta_inclination": 98.382,
        "meta_ra_of_asc_node": 355.5826,
        "meta_arg_of_pericenter": 266.7875,
        "meta_mean_anomaly": 212.3024,
        "meta_ephemeris_type": 0,
        "meta_classification_type": "U",
        "meta_norad_cat_id": 31482,
        "meta_element_set_no": 999,
        "meta_rev_at_epoch": 97203,
        "meta_bstar": 0.00056861308,
        "meta_mean_motion_dot": 1.672e-05,
        "meta_mean_motion_ddot": 0,
        "tle_line1": "1 31482U 99025BVW 25351.86907704  .00001672  00000+0  56861-3 0  9994",
        "tle_line2": "2 31482  98.3820 355.5826 0088738 266.7875 212.3024 14.35679302972034"
      },
      "geometry": {
        "type": "Point",
        "coordinates": [
          5.526869305335914,
          -46.78120218327352
        ]
      }
    },
    {
      "type": "Feature",
      "properties": {
        "norad_id": 31483,
        "name": "FENGYUN 1C DEB",
        "group": "fengyun-1c-debris",
        "lat": 76.68569910168122,
        "lon": -164.83443015685737,
        "alt_km": 861.3618127849331,
        "timestamp": "2025-12-18T19:29:52.826866+00:00",
        "meta_object_name": "FENGYUN 1C DEB",
        "meta_object_id": "1999-025BVX",
        "meta_epoch": "2025-12-17T08:11:59.820576",
        "meta_mean_motion": 14.16086223,
        "meta_eccentricity": 0.01183204,
        "meta_inclination": 102.5034,
        "meta_ra_of_asc_node": 303.4486,
        "meta_arg_of_pericenter": 209.5612,
        "meta_mean_anomaly": 312.1309,
        "meta_ephemeris_type": 0,
        "meta_classification_type": "U",
        "meta_norad_cat_id": 31483,
        "meta_element_set_no": 999,
        "meta_rev_at_epoch": 94771,
        "meta_bstar": 0.002207547,
        "meta_mean_motion_dot": 4.597e-05,
        "meta_mean_motion_ddot": 0,
        "tle_line1": "1 31483U 99025BVX 25351.34166459  .00004597  00000+0  22075-2 0  9990",
        "tle_line2": "2 31483 102.5034 303.4486 0118320 209.5612 312.1309 14.16086223947714"
      },
      "geometry": {
        "type": "Point",
        "coordinates": [
          -164.83443015685737,
          76.68569910168122
        ]
      }
    },
    {
      "type": "Feature",
      "properties": {
        "norad_id": 31484,
        "name": "FENGYUN 1C DEB",
        "group": "fengyun-1c-debris",
        "lat": 28.25130104809675,
        "lon": 118.06875845126243,
        "alt_km": 665.50236528193,
        "timestamp": "2025-12-18T19:29:52.826876+00:00",
        "meta_object_name": "FENGYUN 1C DEB",
        "meta_object_id": "1999-025BVY",
        "meta_epoch": "2025-12-16T07:12:51.702624",
        "meta_mean_motion": 14.50534743,
        "meta_eccentricity": 0.0083054,
        "meta_inclination": 101.8044,
        "meta_ra_of_asc_node": 288.1066,
        "meta_arg_of_pericenter": 142.077,
        "meta_mean_anomaly": 218.6301,
        "meta_ephemeris_type": 0,
        "meta_classification_type": "U",
        "meta_norad_cat_id": 31484,
        "meta_element_set_no": 999,
        "meta_rev_at_epoch": 64289,
        "meta_bstar": 0.0030623043,
        "meta_mean_motion_dot": 0.00012484,
        "meta_mean_motion_ddot": 0,
        "tle_line1": "1 31484U 99025BVY 25350.30059841  .00012484  00000+0  30623-2 0  9994",
        "tle_line2": "2 31484 101.8044 288.1066 0083054 142.0770 218.6301 14.50534743642898"
      },
      "geometry": {
        "type": "Point",
        "coordinates": [
          118.06875845126243,
          28.25130104809675
        ]
      }
    },
    {
      "type": "Feature",
      "properties": {
        "norad_id": 31485,
        "name": "FENGYUN 1C DEB",
        "group": "fengyun-1c-debris",
        "lat": -6.393754193721294,
        "lon": -176.9527443694084,
        "alt_km": 879.9125633026342,
        "timestamp": "2025-12-18T19:29:52.826886+00:00",
        "meta_object_name": "FENGYUN 1C DEB",
        "meta_object_id": "1999-025BVZ",
        "meta_epoch": "2025-12-17T11:16:40.767456",
        "meta_mean_motion": 13.40067118,
        "meta_eccentricity": 0.04461213,
        "meta_inclination": 102.7175,
        "meta_ra_of_asc_node": 179.9125,
        "meta_arg_of_pericenter": 308.7159,
        "meta_mean_anomaly": 47.4857,
        "meta_ephemeris_type": 0,
        "meta_classification_type": "U",
        "meta_norad_cat_id": 31485,
        "meta_element_set_no": 999,
        "meta_rev_at_epoch": 90508,
        "meta_bstar": 0.0022325074,
        "meta_mean_motion_dot": 2.114e-05,
        "meta_mean_motion_ddot": 0,
        "tle_line1": "1 31485U 99025BVZ 25351.46991629  .00002114  00000+0  22325-2 0  9991",
        "tle_line2": "2 31485 102.7175 179.9125 0446121 308.7159  47.4857 13.40067118905089"
      },
      "geometry": {
        "type": "Point",
        "coordinates": [
          -176.9527443694084,
          -6.393754193721294
        ]
      }
    }
  ]
}